HST                     
1 20580U 90037B   26193.50194392  .00003754  00000+0  11416-3 0  9992
2 20580  28.4726 267.5224 0002269  77.7190 282.3660 15.31043109792455
POLAR                   
1 23802U 96013A   26193.45479677  .00000231  00000+0  00000+0 0  9998
2 23802  79.8873 226.7522 6495795 208.2089  91.5098  1.29846074145181
SWAS                    
1 25560U 98071A   26193.45873383  .00001591  00000+0  10488-3 0  9994
2 25560  69.8937 162.3416 0008100 233.5482 126.4936 15.09736681501082
CXO                     
1 25867U 99040B   26195.82327180  .00000664  00000+0  00000+0 0  9998
2 25867  56.5906 115.8556 7794608 310.0752   0.4008  0.37803281 17429
XMM-NEWTON              
1 25989U 99066A   26193.28213418  .00000088  00000+0  00000+0 0  9997
2 25989  64.3559 282.6652 4668218  64.4827   0.1151  0.50124873 23131
TERRA                   
1 25994U 99068A   26193.57965986  .00000197  00000+0  49139-4 0  9993
2 25994  97.9443 242.1174 0003304 127.8609  29.8806 14.61122436413316
CLUSTER II-FM7 (SAMBA)  
1 26410U 00041A   26192.68021872  .00012833  00000+0  00000+0 0  9997
2 26410 149.8437  55.3938 9082311 272.8334 359.6328  0.44896530 20420
CLUSTER II-FM8 (TANGO)  
1 26464U 00045B   26190.95011118  .00011224  00000+0  00000+0 0  9993
2 26464 150.0571  56.2797 9085123 273.5523   2.2662  0.44421537 20419
ODIN                    
1 26702U 01007A   26192.65259463  .00258903  00000+0  95764-3 0  9995
2 26702  97.3751 235.3487 0004885 144.8674 215.2921 15.87492259393269
TIMED                   
1 26998U 01055B   26193.43164828  .00000618  00000+0  59647-4 0  9991
2 26998  74.0664 184.1868 0002150 303.7933  56.3046 14.95341094334593
CORIOLIS                
1 27640U 03001A   26193.56454817  .00000055  00000+0  46541-4 0  9997
2 27640  98.7134 200.0622 0014806 136.2601 223.9751 14.19951352217822
SORCE                   
1 27651U 03004A   26193.24290515  .00001532  00000+0  11998-3 0  9998
2 27651  39.9903 118.7092 0018619 234.6215 125.2839 15.03833300275675
MOST                    
1 27843U 03031D   26193.55408501  .00000024  00000+0  31060-4 0  9999
2 27843  98.7052 200.9262 0009919 172.5664 187.5662 14.21327361194310
SCISAT 1                
1 27858U 03036A   26193.21136910  .00000331  00000+0  46889-4 0  9991
2 27858  73.9302 121.6234 0007525 190.4711 169.6310 14.81476928235159
SWIFT                   
1 28485U 04047A   26193.60849665  .00045760  00000+0  34022-3 0  9992
2 28485  20.5531 348.4380 0001722 354.1093   5.9333 15.70948853190869
HINODE (SOLAR-B)        
1 29479U 06041A   26193.53016054  .00000326  00000+0  64454-4 0  9994
2 29479  98.0549 209.3092 0016817 203.1265 156.9185 14.68656236 58594
SHIJIAN-6 02A (SJ-6 02A)
1 29505U 06046A   26193.55121679  .00003733  00000+0  19119-3 0  9993
2 29505  97.6354 234.8106 0004549  70.2480 289.9243 15.17227784 76110
SHIJIAN-6 02B (SJ-6 02B)
1 29506U 06046B   26193.60503144  .00000831  00000+0  69009-4 0  9991
2 29506  97.7154 222.5063 0013722 345.2102  14.8719 15.01435667 74558
FGRST (GLAST)           
1 33053U 08029A   26193.63316557  .00002226  00000+0  75624-4 0  9999
2 33053  25.5834  27.7802 0007667 267.7308  92.2352 15.24068084999725
SDO                     
1 36395U 10005A   26192.24778596 -.00000102  00000+0  00000+0 0  9992
2 36395  34.6998  85.9778 0002020  56.2745 133.8056  1.00277272 60307
CRYOSAT 2               
1 36508U 10013A   26193.58197501  .00000133  00000+0  32212-4 0  9994
2 36508  92.0359 283.4753 0002351  98.3873 261.7601 14.51897778861761
X-SAT                   
1 37389U 11015C   26193.56960038 -.00000047  00000+0 -23554-5 0  9992
2 37389  98.3520 169.3856 0012688 269.5182  90.4545 14.25212919791296
GCOM-W1 (SHIZUKU)       
1 38337U 12025A   26193.45047366  .00000225  00000+0  60003-4 0  9991
2 38337  98.2025 133.6243 0001339  76.5699  38.1361 14.57088790752715
NUSTAR                  
1 38358U 12031A   26193.66668981  .00010681  00000+0  60147-3 0  9991
2 38358   6.0256 202.9885 0006977 137.2868 137.3506 15.09030009  1302
NEOSSAT                 
1 39089U 13009D   26193.50565959  .00000067  00000+0  38029-4 0  9995
2 39089  98.4188  12.9376 0011271 164.9456 195.2068 14.35834992700370
BRITE-AUSTRIA           
1 39091U 13009F   26193.49167969  .00000086  00000+0  43656-4 0  9998
2 39091  98.4006  12.3025 0010611 158.3879 201.7757 14.36551807700684
IRIS                    
1 39197U 13033A   26193.55206303  .00000532  00000+0  67113-4 0  9995
2 39197  97.9320  32.7491 0023181 234.1182 125.7881 14.85933684704142
HISAKI (SPRINT-A)       
1 39253U 13049A   26193.16906269  .00000080  00000+0  17250-4 0  9995
2 39253  29.7204  92.9973 0136956 219.3757 139.6789 13.55546570634817
CASSIOPE                
1 39265U 13055A   26193.59739897  .00023659 -52837-6  25380-3 0  9995
2 39265  80.9125  35.8074 0283460 336.7084  22.1504 15.27304670671545
STSAT-3                 
1 39422U 13066G   26193.61409840  .00001013  00000+0  80030-4 0  9998
2 39422  97.6188 163.0919 0008941 316.1497  43.9018 15.02876577688020
SWARM B                 
1 39451U 13067A   26193.59921070  .00002125  00000+0  74895-4 0  9999
2 39451  87.7456 334.5964 0002435  82.4692 277.6834 15.28706965687120
